{"type": "FeatureCollection", "features": [ {"type": "Feature", "properties": {"norad_id": 40938, "name": "BEIDOU-3S IGSO-2S (C56)", "group": "gnss", "lat": -38.476595310602725, "lon": 123.58677742941957, "alt_km": 35614.1098832605, "timestamp": "2025-12-19T20:43:00.328247+00:00", "meta": {"OBJECT_NAME": "BEIDOU-3S IGSO-2S (C56)", "OBJECT_ID": "2015-053A", "EPOCH": "2025-12-18T17:10:26.885280", "MEAN_MOTION": 1.00268888, "ECCENTRICITY": 0.00604928, "INCLINATION": 49.5013, "RA_OF_ASC_NODE": 260.935, "ARG_OF_PERICENTER": 188.6507, "MEAN_ANOMALY": 351.508, "EPHEMERIS_TYPE": 0, "CLASSIFICATION_TYPE": "U", "NORAD_CAT_ID": 40938, "ELEMENT_SET_NO": 999, "REV_AT_EPOCH": 3754, "BSTAR": 0, "MEAN_MOTION_DOT": -1.17e-06, "MEAN_MOTION_DDOT": 0}, "tle": {"line1": "1 40938U 15053A   25352.71558895 -.00000117  00000+0  00000+0 0  9991", "line2": "2 40938  49.5013 260.9350 0060492 188.6507 351.5080  1.00268888 37541"}}, "geometry": {"type": "Point", "coordinates": [123.58677742941957, -38.476595310602725]}}, {"type": "Feature", "properties": {"norad_id": 41019, "name": "GPS BIIF-11 (PRN 10)", "group": "gnss", "lat": 41.172331393918, "lon": 72.60038170597522, "alt_km": 20472.229955819268, "timestamp": "2025-12-19T20:43:00.328259+00:00", "meta": {"OBJECT_NAME": "GPS BIIF-11 (PRN 10)", "OBJECT_ID": "2015-062A", "EPOCH": "2025-12-18T07:03:43.989696", "MEAN_MOTION": 2.00567221, "ECCENTRICITY": 0.0110964, "INCLINATION": 56.8362, "RA_OF_ASC_NODE": 37.7874, "ARG_OF_PERICENTER": 230.0867, "MEAN_ANOMALY": 128.9943, "EPHEMERIS_TYPE": 0, "CLASSIFICATION_TYPE": "U", "NORAD_CAT_ID": 41019, "ELEMENT_SET_NO": 999, "REV_AT_EPOCH": 7420, "BSTAR": 0, "MEAN_MOTION_DOT": -6.9e-07, "MEAN_MOTION_DDOT": 0}, "tle": {"line1": "1 41019U 15062A   25352.29425914 -.00000069  00000+0  00000+0 0  9996", "line2": "2 41019  56.8362  37.7874 0110964 230.0867 128.9943  2.00567221 74204"}}, "geometry": {"type": "Point", "coordinates": [72.60038170597522, 41.172331393918]}}, {"type": "Feature", "properties": {"norad_id": 41028, "name": "GSAT-15 (GAGAN/PRN 139)", "group": "gnss", "lat": -0.003711224142311131, "lon": 132.9112908250907, "alt_km": 35788.17359588705, "timestamp": "2025-12-19T20:43:00.328271+00:00", "meta": {"OBJECT_NAME": "GSAT-15 (GAGAN/PRN 139)", "OBJECT_ID": "2015-065A", "EPOCH": "2025-12-18T19:05:45.371328", "MEAN_MOTION": 1.00271726, "ECCENTRICITY": 0.00025136, "INCLINATION": 0.0329, "RA_OF_ASC_NODE": 270.5773, "ARG_OF_PERICENTER": 322.7332, "MEAN_ANOMALY": 234.2757, "EPHEMERIS_TYPE": 0, "CLASSIFICATION_TYPE": "U", "NORAD_CAT_ID": 41028, "ELEMENT_SET_NO": 999, "REV_AT_EPOCH": 3699, "BSTAR": 0, "MEAN_MOTION_DOT": -2.33e-06, "MEAN_MOTION_DDOT": 0}, "tle": {"line1": "1 41028U 15065A   25352.79566402 -.00000233  00000+0  00000+0 0  9995", "line2": "2 41028   0.0329 270.5773 0002513 322.7332 234.2757  1.00271726 36998"}}, "geometry": {"type": "Point", "coordinates": [132.9112908250907, -0.003711224142311131]}}, {"type": "Feature", "properties": {"norad_id": 41174, "name": "GSAT0209 (GALILEO 12)", "group": "gnss", "lat": -13.042280952874814, "lon": -64.74221921990325, "alt_km": 23230.464043260283, "timestamp": "2025-12-19T20:43:00.328296+00:00", "meta": {"OBJECT_NAME": "GSAT0209 (GALILEO 12)", "OBJECT_ID": "2015-079A", "EPOCH": "2025-12-17T18:49:30.009504", "MEAN_MOTION": 1.70474581, "ECCENTRICITY": 0.00024688, "INCLINATION": 55.7156, "RA_OF_ASC_NODE": 106.2426, "ARG_OF_PERICENTER": 347.1145, "MEAN_ANOMALY": 12.8381, "EPHEMERIS_TYPE": 0, "CLASSIFICATION_TYPE": "U", "NORAD_CAT_ID": 41174, "ELEMENT_SET_NO": 999, "REV_AT_EPOCH": 6168, "BSTAR": 0, "MEAN_MOTION_DOT": -9e-08, "MEAN_MOTION_DDOT": 0}, "tle": {"line1": "1 41174U 15079A   25351.78437511 -.00000009  00000+0  00000+0 0  9999", "line2": "2 41174  55.7156 106.2426 0002468 347.1145  12.8381  1.70474581 61685"}}, "geometry": {"type": "Point", "coordinates": [-64.74221921990325, -13.042280952874814]}}, {"type": "Feature", "properties": {"norad_id": 41175, "name": "GSAT0208 (GALILEO 11)", "group": "gnss", "lat": 46.12925004264517, "lon": 151.30358660199124, "alt_km": 23214.183141761125, "timestamp": "2025-12-19T20:43:00.328308+00:00", "meta": {"OBJECT_NAME": "GSAT0208 (GALILEO 11)", "OBJECT_ID": "2015-079B", "EPOCH": "2025-12-18T00:06:32.261184", "MEAN_MOTION": 1.70474394, "ECCENTRICITY": 0.00019057, "INCLINATION": 55.7144, "RA_OF_ASC_NODE": 106.2337, "ARG_OF_PERICENTER": 356.5595, "MEAN_ANOMALY": 3.3982, "EPHEMERIS_TYPE": 0, "CLASSIFICATION_TYPE": "U", "NORAD_CAT_ID": 41175, "ELEMENT_SET_NO": 999, "REV_AT_EPOCH": 6210, "BSTAR": 0, "MEAN_MOTION_DOT": -8e-08, "MEAN_MOTION_DDOT": 0}, "tle": {"line1": "1 41175U 15079B   25352.00454006 -.00000008  00000+0  00000+0 0  9993", "line2": "2 41175  55.7144 106.2337 0001905 356.5595   3.3982  1.70474394 62104"}}, "geometry": {"type": "Point", "coordinates": [151.30358660199124, 46.12925004264517]}}, {"type": "Feature", "properties": {"norad_id": 41241, "name": "IRNSS-1E", "group": "gnss", "lat": 32.86078896330088, "lon": 150.71182994814882, "alt_km": 35798.215627372934, "timestamp": "2025-12-19T20:43:00.328322+00:00", "meta": {"OBJECT_NAME": "IRNSS-1E", "OBJECT_ID": "2016-003A", "EPOCH": "2025-12-18T14:48:50.843232", "MEAN_MOTION": 1.00271358, "ECCENTRICITY": 0.00216611, "INCLINATION": 32.8383, "RA_OF_ASC_NODE": 62.3675, "ARG_OF_PERICENTER": 188.4275, "MEAN_ANOMALY": 170.6574, "EPHEMERIS_TYPE": 0, "CLASSIFICATION_TYPE": "U", "NORAD_CAT_ID": 41241, "ELEMENT_SET_NO": 999, "REV_AT_EPOCH": 3626, "BSTAR": 0, "MEAN_MOTION_DOT": -3.05e-06, "MEAN_MOTION_DDOT": 0}, "tle": {"line1": "1 41241U 16003A   25352.61725513 -.00000305  00000+0  00000+0 0  9996", "line2": "2 41241  32.8383  62.3675 0021661 188.4275 170.6574  1.00271358 36265"}}, "geometry": {"type": "Point", "coordinates": [150.71182994814882, 32.86078896330088]}}, {"type": "Feature", "properties": {"norad_id": 41328, "name": "GPS BIIF-12 (PRN 32)", "group": "gnss", "lat": -5.579953436195849, "lon": 92.71296375975632, "alt_km": 20263.794077018698, "timestamp": "2025-12-19T20:43:00.328334+00:00", "meta": {"OBJECT_NAME": "GPS BIIF-12 (PRN 32)", "OBJECT_ID": "2016-007A", "EPOCH": "2025-12-18T09:02:43.184544", "MEAN_MOTION": 2.00560483, "ECCENTRICITY": 0.00924431, "INCLINATION": 55.4093, "RA_OF_ASC_NODE": 96.6333, "ARG_OF_PERICENTER": 243.7073, "MEAN_ANOMALY": 115.3258, "EPHEMERIS_TYPE": 0, "CLASSIFICATION_TYPE": "U", "NORAD_CAT_ID": 41328, "ELEMENT_SET_NO": 999, "REV_AT_EPOCH": 7221, "BSTAR": 0, "MEAN_MOTION_DOT": -3.5e-07, "MEAN_MOTION_DDOT": 0}, "tle": {"line1": "1 41328U 16007A   25352.37688871 -.00000035  00000+0  00000+0 0  9994", "line2": "2 41328  55.4093  96.6333 0092443 243.7073 115.3258  2.00560483 72219"}}, "geometry": {"type": "Point", "coordinates": [92.71296375975632, -5.579953436195849]}}, {"type": "Feature", "properties": {"norad_id": 41330, "name": "COSMOS 2514 (751)", "group": "gnss", "lat": -47.05997496684421, "lon": 169.02626575926365, "alt_km": 19106.158691688463, "timestamp": "2025-12-19T20:43:00.328345+00:00", "meta": {"OBJECT_NAME": "COSMOS 2514 (751)", "OBJECT_ID": "2016-008A", "EPOCH": "2025-12-19T02:08:24.725184", "MEAN_MOTION": 2.1310269, "ECCENTRICITY": 0.00118183, "INCLINATION": 65.1302, "RA_OF_ASC_NODE": 319.1866, "ARG_OF_PERICENTER": 220.1523, "MEAN_ANOMALY": 139.7515, "EPHEMERIS_TYPE": 0, "CLASSIFICATION_TYPE": "U", "NORAD_CAT_ID": 41330, "ELEMENT_SET_NO": 999, "REV_AT_EPOCH": 7678, "BSTAR": 0, "MEAN_MOTION_DOT": -6e-07, "MEAN_MOTION_DDOT": 0}, "tle": {"line1": "1 41330U 16008A   25353.08917506 -.00000060  00000+0  00000+0 0  9995", "line2": "2 41330  65.1302 319.1866 0011818 220.1523 139.7515  2.13102690 76781"}}, "geometry": {"type": "Point", "coordinates": [169.02626575926365, -47.05997496684421]}}, {"type": "Feature", "properties": {"norad_id": 41384, "name": "IRNSS-1F", "group": "gnss", "lat": -2.3536033490109785, "lon": 72.09871092299403, "alt_km": 35867.82467017791, "timestamp": "2025-12-19T20:43:00.328357+00:00", "meta": {"OBJECT_NAME": "IRNSS-1F", "OBJECT_ID": "2016-015A", "EPOCH": "2025-12-18T13:26:55.794336", "MEAN_MOTION": 1.00275515, "ECCENTRICITY": 0.00226475, "INCLINATION": 4.8955, "RA_OF_ASC_NODE": 101.1536, "ARG_OF_PERICENTER": 181.4277, "MEAN_ANOMALY": 38.9776, "EPHEMERIS_TYPE": 0, "CLASSIFICATION_TYPE": "U", "NORAD_CAT_ID": 41384, "ELEMENT_SET_NO": 999, "REV_AT_EPOCH": 3585, "BSTAR": 0, "MEAN_MOTION_DOT": 1.79e-06, "MEAN_MOTION_DDOT": 0}, "tle": {"line1": "1 41384U 16015A   25352.56036799  .00000179  00000+0  00000+0 0  9990", "line2": "2 41384   4.8955 101.1536 0022647 181.4277  38.9776  1.00275515 35858"}}, "geometry": {"type": "Point", "coordinates": [72.09871092299403, -2.3536033490109785]}}, {"type": "Feature", "properties": {"norad_id": 41434, "name": "BEIDOU-2 IGSO-6 (C13)", "group": "gnss", "lat": 59.89176998586405, "lon": 134.75059470255152, "alt_km": 35965.11490190474, "timestamp": "2025-12-19T20:43:00.328368+00:00", "meta": {"OBJECT_NAME": "BEIDOU-2 IGSO-6 (C13)", "OBJECT_ID": "2016-021A", "EPOCH": "2025-12-18T14:33:38.837664", "MEAN_MOTION": 1.00292299, "ECCENTRICITY": 0.00610054, "INCLINATION": 59.9732, "RA_OF_ASC_NODE": 39.8392, "ARG_OF_PERICENTER": 230.2031, "MEAN_ANOMALY": 129.1398, "EPHEMERIS_TYPE": 0, "CLASSIFICATION_TYPE": "U", "NORAD_CAT_ID": 41434, "ELEMENT_SET_NO": 999, "REV_AT_EPOCH": 3566, "BSTAR": 0, "MEAN_MOTION_DOT": -1.41e-06, "MEAN_MOTION_DDOT": 0}, "tle": {"line1": "1 41434U 16021A   25352.60669951 -.00000141  00000+0  00000+0 0  9990", "line2": "2 41434  59.9732  39.8392 0061005 230.2031 129.1398  1.00292299 35667"}}, "geometry": {"type": "Point", "coordinates": [134.75059470255152, 59.89176998586405]}}]}